     3.04           N: GNSS NAV DATA    G: GPS              RINEX VERSION / TYPE
X-pos v7.8.1.9462   LGS                 20240221 144738 UTC PGM / RUN BY / DATE
GPSA   2.0489D-08  0.0000D+00 -1.1921D-07  1.1921D-07       IONOSPHERIC CORR
GPSB   1.3107D+05 -6.5536D+04  6.5536D+04 -5.8982D+05       IONOSPHERIC CORR
GPUT  0.0000000000D+00-3.552713679D-15 405504 2302          TIME SYSTEM CORR
    18    18  1929     7                                    LEAP SECONDS
                                                            END OF HEADER
G17 2024 02 20 00 00 00 7.164371199906D-04-1.250555214938D-12 0.000000000000D+00
     8.500000000000D+01 1.017812500000D+02 4.060883629364D-09-2.044127884966D+00
     5.459412932396D-06 1.353663380723D-02 8.847564458847D-06 5.153682157516D+03
     1.728000000000D+05 8.381903171539D-08 2.789626031533D+00 2.905726432800D-07
     9.706002567794D-01 2.140312500000D+02-1.335099177223D+00-7.619245678825D-09
    -1.214336270428D-10 1.000000000000D+00 2.302000000000D+03 0.000000000000D+00
     2.000000000000D+00 0.000000000000D+00-1.117587089539D-08 8.500000000000D+01
     1.655400000000D+05                   
G02 2024 02 20 00 00 00-4.827845841646D-04 5.911715561524D-12 0.000000000000D+00
     6.000000000000D+01 7.721875000000D+01 4.401969011525D-09-1.770952449244D+00
     4.421919584274D-06 1.620307331905D-02 3.308057785034D-06 5.153716079712D+03
     1.728000000000D+05-9.872019290924D-08-2.591185157125D+00 3.445893526077D-07
     9.677048537057D-01 3.224062500000D+02-1.237501953689D+00-8.122838401903D-09
     1.789360187798D-10 1.000000000000D+00 2.302000000000D+03 0.000000000000D+00
     2.000000000000D+00 0.000000000000D+00-1.769512891769D-08 6.000000000000D+01
     1.655400000000D+05                   
G08 2024 02 20 00 00 00-1.678648404777D-04-1.818989403546D-12 0.000000000000D+00
     4.800000000000D+01 7.206250000000D+01 4.501973460691D-09-2.093184717134D+00
     3.479421138763D-06 9.364422294311D-03 8.646398782730D-06 5.153593664169D+03
     1.728000000000D+05 4.097819328308D-08 2.696481124565D+00-1.657754182816D-07
     9.548109044153D-01 2.113437500000D+02 3.237585917649D-01-7.881756580730D-09
    -6.928860263322D-11 1.000000000000D+00 2.302000000000D+03 0.000000000000D+00
     2.800000000000D+00 0.000000000000D+00 5.122274160385D-09 4.800000000000D+01
     1.655400000000D+05                   
G04 2024 02 20 00 00 00 2.959063276649D-04 9.322320693173D-12 0.000000000000D+00
     2.240000000000D+02-6.396875000000D+01 4.138029474632D-09-2.351732571033D+00
    -3.410503268242D-06 2.835038350895D-03 1.038052141666D-05 5.153586263657D+03
     1.728000000000D+05-5.215406417847D-08-3.783216661817D-01 1.862645149231D-08
     9.646801228221D-01 1.823437500000D+02-2.974745613409D+00-7.671748569749D-09
     3.103700629836D-10 1.000000000000D+00 2.302000000000D+03 0.000000000000D+00
     2.000000000000D+00 0.000000000000D+00-4.656612873077D-09 4.800000000000D+02
     1.655400000000D+05                   
G19 2024 02 19 23 59 44 4.430511035025D-04 5.343281372916D-12 0.000000000000D+00
     4.000000000000D+01 9.487500000000D+01 4.210889859024D-09-1.050323393614D-02
     4.893168807030D-06 9.504726156592D-03 8.929520845413D-06 5.153691402435D+03
     1.727840000000D+05 4.284083843231D-08 2.833984493092D+00-1.285225152969D-07
     9.697818155567D-01 2.147812500000D+02 2.483528876695D+00-7.950331060158D-09
    -8.857511946125D-11 1.000000000000D+00 2.302000000000D+03 0.000000000000D+00
     2.000000000000D+00 0.000000000000D+00-1.536682248116D-08 4.000000000000D+01
     1.655100000000D+05                   
G14 2024 02 20 00 00 00 3.302223049104D-04 1.000444171950D-11 0.000000000000D+00
     6.500000000000D+01 1.296875000000D+01 5.001279834715D-09 6.661681426342D-01
     6.593763828278D-07 4.003476467915D-03 7.001683115959D-06 5.153685569763D+03
     1.728000000000D+05 3.352761268616D-08 1.707488995862D+00 3.166496753693D-08
     9.460648325863D-01 2.365000000000D+02-2.965470962946D+00-8.160697007042D-09
    -4.110885520880D-10 1.000000000000D+00 2.302000000000D+03 0.000000000000D+00
     2.000000000000D+00 0.000000000000D+00-7.916241884232D-09 6.500000000000D+01
     1.655400000000D+05                   
G31 2024 02 19 23 59 44-2.278201282024D-04-1.136868377216D-13 0.000000000000D+00
     4.500000000000D+01 1.434375000000D+01 4.811986364928D-09 5.021367326047D-01
     9.108334779739D-07 1.056104607414D-02 6.984919309616D-06 5.153676557541D+03
     1.727840000000D+05-6.705522537231D-08 6.557680063868D-01 1.806765794754D-07
     9.544140820346D-01 2.419375000000D+02 6.587829196272D-01-8.156768593892D-09
     2.514390362585D-10 1.000000000000D+00 2.302000000000D+03 0.000000000000D+00
     2.000000000000D+00 0.000000000000D+00-1.350417733192D-08 4.500000000000D+01
     1.655100000000D+05                   
G32 2024 02 20 00 00 00-6.125103682280D-04-1.932676241267D-12 0.000000000000D+00
     5.400000000000D+01-6.462500000000D+01 4.285892973854D-09-1.332715574576D+00
    -3.356486558914D-06 7.557532400824D-03 9.698793292046D-06 5.153639776230D+03
     1.728000000000D+05 2.272427082062D-07-4.228326106183D-01 5.401670932770D-08
     9.616408051823D-01 1.938437500000D+02-2.174906055236D+00-7.771038035287D-09
     1.503634022848D-10 1.000000000000D+00 2.302000000000D+03 0.000000000000D+00
     2.000000000000D+00 0.000000000000D+00 4.656612873077D-10 5.400000000000D+01
     1.655400000000D+05                   
G01 2024 02 20 00 00 00 1.702578738332D-04 1.591615728103D-12 0.000000000000D+00
     8.400000000000D+01 5.596875000000D+01 3.996595045654D-09 1.867755229262D+00
     2.710148692131D-06 1.274656562600D-02 3.036111593246D-06 5.154006317139D+03
     1.728000000000D+05-2.477318048477D-07-2.486670649802D+00-2.756714820862D-07
     9.907133454503D-01 3.379062500000D+02 9.987736305421D-01-7.964260314838D-09
     1.750072897561D-10 1.000000000000D+00 2.302000000000D+03 0.000000000000D+00
     4.000000000000D+00 6.300000000000D+01 5.122274160385D-09 8.400000000000D+01
     1.655400000000D+05 6.300000000000D+01
G09 2024 02 20 00 00 00 9.789736941457D-05 1.273292582482D-11 0.000000000000D+00
     6.300000000000D+01-7.653125000000D+01 4.364824501835D-09-1.640959112579D+00
    -3.984197974205D-06 2.772119361907D-03 1.024641096592D-05 5.153725181580D+03
     1.728000000000D+05-5.215406417847D-08-4.370726025368D-01 8.381903171539D-08
     9.581566946151D-01 1.805312500000D+02 2.012245659846D+00-7.818182545805D-09
     2.292952633320D-10 1.000000000000D+00 2.302000000000D+03 0.000000000000D+00
     2.000000000000D+00 0.000000000000D+00 1.396983861923D-09 6.300000000000D+01
     1.655400000000D+05                   
G08 2024 02 19 23 59 44-1.678643748164D-04-1.818989403546D-12 0.000000000000D+00
     5.700000000000D+01 7.206250000000D+01 4.501973460691D-09-2.095519851842D+00
     3.479421138763D-06 9.364411584102D-03 8.646398782730D-06 5.153593652725D+03
     1.727840000000D+05 4.097819328308D-08 2.696481250376D+00-1.657754182816D-07
     9.548109102669D-01 2.113437500000D+02 3.237599566675D-01-7.881756580730D-09
    -6.928860263322D-11 1.000000000000D+00 2.302000000000D+03 0.000000000000D+00
     2.000000000000D+00 0.000000000000D+00 5.122274160385D-09 5.700000000000D+01
     1.655100000000D+05                   
G06 2024 02 20 00 00 00 4.003285430372D-04-1.512034941697D-11 0.000000000000D+00
     2.200000000000D+01 6.378125000000D+01 4.032310929603D-09 2.245981554147D+00
     3.524124622345D-06 3.155002719723D-03 2.562999725342D-06 5.153567853928D+03
     1.728000000000D+05 5.401670932770D-08-2.495066594133D+00 3.725290298462D-09
     9.898254170817D-01 3.439687500000D+02-7.655076694157D-01-8.016048269610D-09
     9.964700592446D-11 1.000000000000D+00 2.302000000000D+03 0.000000000000D+00
     2.000000000000D+00 0.000000000000D+00 3.725290298462D-09 2.200000000000D+01
     1.655400000000D+05                   
G12 2024 02 20 00 00 00-4.796534776688D-04-3.751665644813D-12 0.000000000000D+00
     5.900000000000D+01 6.625000000000D+00 4.627335403740D-09 6.469632949495D-01
     2.216547727585D-07 8.981598890387D-03 7.610768079758D-06 5.153698396683D+03
     1.728000000000D+05-1.247972249985D-07 1.750418123552D+00-3.725290298462D-08
     9.627373617612D-01 2.340625000000D+02 1.416936944585D+00-8.095694781218D-09
    -4.496615857441D-10 1.000000000000D+00 2.302000000000D+03 0.000000000000D+00
     2.000000000000D+00 0.000000000000D+00-1.257285475731D-08 5.900000000000D+01
     1.655400000000D+05                   
G03 2024 02 19 23 59 44 2.039903774858D-04 2.387423592154D-11 0.000000000000D+00
     1.600000000000D+01-9.731250000000D+01 4.056597724400D-09 9.749441681894D-01
    -5.101785063744D-06 5.118495086208D-03 4.326924681664D-06 5.153780082703D+03
     1.727840000000D+05-7.264316082001D-08-1.457895075433D+00 6.332993507385D-08
     9.826862539697D-01 3.068437500000D+02 1.065547467118D+00-8.056407097001D-09
    -2.157232725786D-10 1.000000000000D+00 2.302000000000D+03 0.000000000000D+00
     2.000000000000D+00 0.000000000000D+00 1.862645149231D-09 1.600000000000D+01
     1.655100000000D+05                   
G25 2024 02 20 00 00 00 4.890970885754D-04 1.136868377216D-12 0.000000000000D+00
     8.400000000000D+01 4.343750000000D+00 4.969492817253D-09 5.448788247559D-01
     1.136213541031D-07 1.182961906306D-02 7.160007953644D-06 5.153604412079D+03
     1.728000000000D+05-1.918524503708D-07 1.664931011951D+00 6.146728992462D-08
     9.506023597411D-01 2.382187500000D+02 1.077440185034D+00-8.293916664570D-09
    -4.378753748480D-10 1.000000000000D+00 2.302000000000D+03 0.000000000000D+00
     2.000000000000D+00 0.000000000000D+00 5.587935447693D-09 8.400000000000D+01
     1.655400000000D+05                   
